[
    {
        "Altitude(m)": 570115.1850668113,
        "Argument of Periapsis(deg)": 0.006622991110713501,
        "Eccentricity": 0.0,
        "Inclination(deg)": 53.0,
        "Latitude(deg)": -48.76481307091154,
        "Longitude(deg)": -4.534252215543482,
        "Mean Anomaly(deg)": -69.90840713242241,
        "RAAN(deg)": 154.99014336852804,
        "Satellite Name": "Starlink Shell 1 699",
        "Satellite Number": 699,
        "Semi-Major Axis(m)": 6931778.249405717,
        "Time(s)": 190
    },
    {
        "Altitude(m)": 570009.6209413841,
        "Argument of Periapsis(deg)": 0.0069715695902247375,
        "Eccentricity": 0.0,
        "Inclination(deg)": 53.0,
        "Latitude(deg)": -48.502570964935714,
        "Longitude(deg)": -3.7193810778339462,
        "Mean Anomaly(deg)": -69.28157592886569,
        "RAAN(deg)": 154.98962459845055,
        "Satellite Name": "Starlink Shell 1 699",
        "Satellite Number": 699,
        "Semi-Major Axis(m)": 6931778.249405717,
        "Time(s)": 200
    },
    {
        "Altitude(m)": 569901.305328248,
        "Argument of Periapsis(deg)": 0.007320148069735974,
        "Eccentricity": 0.0,
        "Inclination(deg)": 53.0,
        "Latitude(deg)": -48.23401317750339,
        "Longitude(deg)": -2.913383728143071,
        "Mean Anomaly(deg)": -68.65474472530903,
        "RAAN(deg)": 154.98910582837308,
        "Satellite Name": "Starlink Shell 1 699",
        "Satellite Number": 699,
        "Semi-Major Axis(m)": 6931778.249405717,
        "Time(s)": 210
    },
    {
        "Altitude(m)": 569790.2811549563,
        "Argument of Periapsis(deg)": 0.007668726549247212,
        "Eccentricity": 0.0,
        "Inclination(deg)": 53.0,
        "Latitude(deg)": -47.95926265147982,
        "Longitude(deg)": -2.1162897193097634,
        "Mean Anomaly(deg)": -68.02791352175228,
        "RAAN(deg)": 154.9885870582956,
        "Satellite Name": "Starlink Shell 1 699",
        "Satellite Number": 699,
        "Semi-Major Axis(m)": 6931778.249405717,
        "Time(s)": 220
    },
    {
        "Altitude(m)": 569676.5924032133,
        "Argument of Periapsis(deg)": 0.00801730502875845,
        "Eccentricity": 0.0,
        "Inclination(deg)": 53.0,
        "Latitude(deg)": -47.67844197920486,
        "Longitude(deg)": -1.3281169155746608,
        "Mean Anomaly(deg)": -67.40108231819556,
        "RAAN(deg)": 154.98806828821813,
        "Satellite Name": "Starlink Shell 1 699",
        "Satellite Number": 699,
        "Semi-Major Axis(m)": 6931778.249405717,
        "Time(s)": 230
    },
    {
        "Altitude(m)": 569560.2840896428,
        "Argument of Periapsis(deg)": 0.008365883508269684,
        "Eccentricity": 0.0,
        "Inclination(deg)": 53.0,
        "Latitude(deg)": -47.39167324004676,
        "Longitude(deg)": -0.5488715286680313,
        "Mean Anomaly(deg)": -66.77425111463886,
        "RAAN(deg)": 154.98754951814067,
        "Satellite Name": "Starlink Shell 1 699",
        "Satellite Number": 699,
        "Semi-Major Axis(m)": 6931778.249405717,
        "Time(s)": 240
    },
    {
        "Altitude(m)": 569441.4022461429,
        "Argument of Periapsis(deg)": 0.008714461987780921,
        "Eccentricity": 0.0,
        "Inclination(deg)": 53.0,
        "Latitude(deg)": -47.09907784891741,
        "Longitude(deg)": 0.2214503273544935,
        "Mean Anomaly(deg)": -66.14741991108211,
        "RAAN(deg)": 154.9870307480632,
        "Satellite Name": "Starlink Shell 1 699",
        "Satellite Number": 699,
        "Semi-Major Axis(m)": 6931778.249405717,
        "Time(s)": 250
    },
    {
        "Altitude(m)": 569319.9938997322,
        "Argument of Periapsis(deg)": 0.009063040467292158,
        "Eccentricity": 0.0,
        "Inclination(deg)": 53.0,
        "Latitude(deg)": -46.80077641563139,
        "Longitude(deg)": 0.9828625916898796,
        "Mean Anomaly(deg)": -65.52058870752543,
        "RAAN(deg)": 154.9865119779857,
        "Satellite Name": "Starlink Shell 1 699",
        "Satellite Number": 699,
        "Semi-Major Axis(m)": 6931778.249405717,
        "Time(s)": 260
    },
    {
        "Altitude(m)": 569196.107052012,
        "Argument of Periapsis(deg)": 0.009411618946803396,
        "Eccentricity": 0.0,
        "Inclination(deg)": 53.0,
        "Latitude(deg)": -46.49688861493754,
        "Longitude(deg)": 1.7353892130323112,
        "Mean Anomaly(deg)": -64.89375750396867,
        "RAAN(deg)": 154.98599320790825,
        "Satellite Name": "Starlink Shell 1 699",
        "Satellite Number": 699,
        "Semi-Major Axis(m)": 6931778.249405717,
        "Time(s)": 270
    },
    {
        "Altitude(m)": 569069.7906581296,
        "Argument of Periapsis(deg)": 0.009760197426314633,
        "Eccentricity": 0.0,
        "Inclination(deg)": 53.0,
        "Latitude(deg)": -46.18753306700405,
        "Longitude(deg)": 2.479062596446112,
        "Mean Anomaly(deg)": -64.26692630041198,
        "RAAN(deg)": 154.98547443783076,
        "Satellite Name": "Starlink Shell 1 699",
        "Satellite Number": 699,
        "Semi-Major Axis(m)": 6931778.249405717,
        "Time(s)": 280
    },
    {
        "Altitude(m)": 568941.0946053385,
        "Argument of Periapsis(deg)": 0.01010877590582587,
        "Eccentricity": 0.0,
        "Inclination(deg)": 53.0,
        "Latitude(deg)": -45.8728272280834,
        "Longitude(deg)": 3.2139235691685304,
        "Mean Anomaly(deg)": -63.640095096855255,
        "RAAN(deg)": 154.98495566775327,
        "Satellite Name": "Starlink Shell 1 699",
        "Satellite Number": 699,
        "Semi-Major Axis(m)": 6931778.249405717,
        "Time(s)": 290
    },
    {
        "Altitude(m)": 568810.0696911507,
        "Argument of Periapsis(deg)": 0.010457354385337106,
        "Eccentricity": 0.0,
        "Inclination(deg)": 53.0,
        "Latitude(deg)": -45.552887291055086,
        "Longitude(deg)": 3.9400213547366394,
        "Mean Anomaly(deg)": -63.01326389329851,
        "RAAN(deg)": 154.98443689767583,
        "Satellite Name": "Starlink Shell 1 699",
        "Satellite Number": 699,
        "Semi-Major Axis(m)": 6931778.249405717,
        "Time(s)": 300
    },
    {
        "Altitude(m)": 568676.7676010444,
        "Argument of Periapsis(deg)": 0.010805932864848343,
        "Eccentricity": 0.0,
        "Inclination(deg)": 53.0,
        "Latitude(deg)": -45.22782809551256,
        "Longitude(deg)": 4.657412044565377,
        "Mean Anomaly(deg)": -62.386432689741845,
        "RAAN(deg)": 154.98391812759837,
        "Satellite Name": "Starlink Shell 1 699",
        "Satellite Number": 699,
        "Semi-Major Axis(m)": 6931778.249405717,
        "Time(s)": 310
    },
    {
        "Altitude(m)": 568541.2408858,
        "Argument of Periapsis(deg)": 0.01115451134435958,
        "Eccentricity": 0.0,
        "Inclination(deg)": 53.0,
        "Latitude(deg)": -44.897763047026295,
        "Longitude(deg)": 5.366158594461384,
        "Mean Anomaly(deg)": -61.759601486185126,
        "RAAN(deg)": 154.98339935752088,
        "Satellite Name": "Starlink Shell 1 699",
        "Satellite Number": 699,
        "Semi-Major Axis(m)": 6931778.249405717,
        "Time(s)": 320
    },
    {
        "Altitude(m)": 568403.5429384165,
        "Argument of Periapsis(deg)": 0.011503089823870818,
        "Eccentricity": 0.0,
        "Inclination(deg)": 53.0,
        "Latitude(deg)": -44.56280404520448,
        "Longitude(deg)": 6.066330834685665,
        "Mean Anomaly(deg)": -61.132770282628414,
        "RAAN(deg)": 154.9828805874434,
        "Satellite Name": "Starlink Shell 1 699",
        "Satellite Number": 699,
        "Semi-Major Axis(m)": 6931778.249405717,
        "Time(s)": 330
    },
    {
        "Altitude(m)": 568263.7279706636,
        "Argument of Periapsis(deg)": 0.011851668303382053,
        "Eccentricity": 0.0,
        "Inclination(deg)": 53.0,
        "Latitude(deg)": -44.22306142015565,
        "Longitude(deg)": 6.758003981948341,
        "Mean Anomaly(deg)": -60.50593907907167,
        "RAAN(deg)": 154.98236181736593,
        "Satellite Name": "Starlink Shell 1 699",
        "Satellite Number": 699,
        "Semi-Major Axis(m)": 6931778.249405717,
        "Time(s)": 340
    },
    {
        "Altitude(m)": 568121.8509892334,
        "Argument of Periapsis(deg)": 0.012200246782893292,
        "Eccentricity": 0.0,
        "Inclination(deg)": 53.0,
        "Latitude(deg)": -43.8786438769409,
        "Longitude(deg)": 7.441258680112934,
        "Mean Anomaly(deg)": -59.879107875515,
        "RAAN(deg)": 154.98184304728844,
        "Satellite Name": "Starlink Shell 1 699",
        "Satellite Number": 699,
        "Semi-Major Axis(m)": 6931778.249405717,
        "Time(s)": 350
    },
    {
        "Altitude(m)": 567977.967771557,
        "Argument of Periapsis(deg)": 0.012548825262404526,
        "Eccentricity": 0.0,
        "Inclination(deg)": 53.0,
        "Latitude(deg)": -43.52965844760365,
        "Longitude(deg)": 8.116181057566918,
        "Mean Anomaly(deg)": -59.252276671958235,
        "RAAN(deg)": 154.981324277211,
        "Satellite Name": "Starlink Shell 1 699",
        "Satellite Number": 699,
        "Semi-Major Axis(m)": 6931778.249405717,
        "Time(s)": 360
    },
    {
        "Altitude(m)": 567832.1348412602,
        "Argument of Periapsis(deg)": 0.012897403741915765,
        "Eccentricity": 0.0,
        "Inclination(deg)": 53.0,
        "Latitude(deg)": -43.176210450363385,
        "Longitude(deg)": 8.782861289023298,
        "Mean Anomaly(deg)": -58.62544546840155,
        "RAAN(deg)": 154.9808055071335,
        "Satellite Name": "Starlink Shell 1 699",
        "Satellite Number": 699,
        "Semi-Major Axis(m)": 6931778.249405717,
        "Time(s)": 370
    }
]